     2              NAVIGATION DATA                         RINEX VERSION / TYPE
CCRINEXN V1.6.0 UX  CDDIS               02-OCT-18 17:31     PGM / RUN BY / DATE 
IGS BROADCAST EPHEMERIS FILE                                COMMENT             
    0.1024D-07  0.7451D-08 -0.5960D-07 -0.5960D-07          ION ALPHA           
    0.8806D+05  0.0000D+00 -0.1966D+06 -0.6554D+05          ION BETA            
   -0.931322574615D-09-0.532907051820D-14   319488     2021 DELTA-UTC: A0,A1,T,W
    18                                                      LEAP SECONDS        
                                                            END OF HEADER       
14 18 10  1 16  0  0.0-0.970014370978D-04 0.227373675443D-12 0.000000000000D+00
    0.310000000000D+02 0.453125000000D+01 0.472055372569D-08-0.122513724281D+01
    0.219792127609D-06 0.100433657644D-01 0.821985304356D-05 0.515362736893D+04
    0.144000000000D+06 0.987201929092D-07-0.283591434975D+01 0.236555933952D-06
    0.961164929634D+00 0.223375000000D+03-0.194306419219D+01-0.810640887749D-08
   -0.423946239225D-09 0.100000000000D+01 0.202100000000D+04 0.000000000000D+00
    0.200000000000D+01 0.000000000000D+00-0.977888703346D-08 0.310000000000D+02
    0.000000000000D+00 0.000000000000D+00 0.000000000000D+00 0.000000000000D+00
15 18 10  1 16  0  0.0-0.344346277416D-03 0.113686837722D-11 0.000000000000D+00
    0.780000000000D+02-0.521875000000D+01 0.541629703908D-08-0.187025503003D+01
   -0.318512320519D-06 0.107862980804D-01 0.746361911297D-05 0.515356414223D+04
    0.144000000000D+06 0.106170773506D-06-0.300064491028D+01-0.931322574615D-07
    0.928531793053D+00 0.217125000000D+03 0.708957225177D+00-0.828748806429D-08
   -0.217509060125D-09 0.100000000000D+01 0.202100000000D+04 0.000000000000D+00
    0.200000000000D+01 0.000000000000D+00-0.107102096081D-07 0.780000000000D+02
    0.138018000000D+06 0.400000000000D+01 0.000000000000D+00 0.000000000000D+00
16 18 10  1 16  0  0.0 0.636139884591D-05-0.181898940355D-11 0.000000000000D+00
    0.690000000000D+02 0.496250000000D+02 0.401552440557D-08 0.130322301590D-01
    0.274553894997D-05 0.100118493428D-01 0.501796603203D-05 0.515370550919D+04
    0.144000000000D+06 0.502914190292D-07-0.735002765575D+00 0.949949026108D-07
    0.985786361707D+00 0.294531250000D+03 0.520595462811D+00-0.818248369043D-08
    0.130719730716D-09 0.100000000000D+01 0.202100000000D+04 0.000000000000D+00
    0.200000000000D+01 0.000000000000D+00-0.107102096081D-07 0.690000000000D+02
    0.136818000000D+06 0.400000000000D+01 0.000000000000D+00 0.000000000000D+00
17 18 10  1 16  0  0.0-0.493316911161D-04 0.443378667114D-11 0.000000000000D+00
    0.590000000000D+02-0.587500000000D+02 0.420160350956D-08-0.957992490838D+00
   -0.280141830444D-05 0.126426026691D-01 0.571645796299D-05 0.515362072182D+04
    0.144000000000D+06-0.169500708580D-06 0.279356386029D+00 0.191852450371D-06
    0.983556500048D+00 0.284468750000D+03-0.177269960792D+01-0.816712564244D-08
    0.642883923180D-11 0.100000000000D+01 0.202100000000D+04 0.000000000000D+00
    0.200000000000D+01 0.000000000000D+00-0.111758708954D-07 0.590000000000D+02
    0.136830000000D+06 0.000000000000D+00 0.000000000000D+00 0.000000000000D+00
18 18 10  1 16  0  0.0 0.634454190731D-04 0.420641299570D-11 0.000000000000D+00
    0.430000000000D+02-0.700937500000D+02 0.468340936851D-08 0.291046126257D+01
   -0.369921326637D-05 0.149897593073D-01 0.846758484840D-05 0.515362947273D+04
    0.144000000000D+06 0.175088644028D-06 0.123050668759D+01-0.189989805222D-06
    0.950904818054D+00 0.208656250000D+03 0.135294644424D+01-0.787282793488D-08
    0.176078762959D-09 0.100000000000D+01 0.202100000000D+04 0.000000000000D+00
    0.200000000000D+01 0.000000000000D+00-0.651925802231D-08 0.430000000000D+02
    0.136818000000D+06 0.400000000000D+01 0.000000000000D+00 0.000000000000D+00
19 18 10  1 16  0  0.0-0.397588126361D-03 0.352429196937D-11 0.000000000000D+00
    0.100000000000D+03-0.717187500000D+02 0.414588718911D-08 0.179856244009D+01
   -0.386126339436D-05 0.960739247967D-02 0.588223338127D-05 0.515360350609D+04
    0.144000000000D+06-0.800937414169D-07 0.326056063647D+00-0.244006514549D-06
    0.981164219371D+00 0.277406250000D+03 0.129276736337D+01-0.796176014006D-08
   -0.428589282120D-11 0.100000000000D+01 0.202100000000D+04 0.000000000000D+00
    0.200000000000D+01 0.000000000000D+00-0.153668224812D-07 0.100000000000D+03
    0.136830000000D+06 0.000000000000D+00 0.000000000000D+00 0.000000000000D+00
20 18 10  1 16  0  0.0 0.516647938639D-03 0.568434188608D-12 0.000000000000D+00
    0.200000000000D+02-0.132187500000D+02 0.553451624910D-08 0.300177146106D+01
   -0.584870576858D-06 0.432787800673D-02 0.781752169132D-05 0.515367155266D+04
    0.144000000000D+06 0.117346644402D-06 0.220981176191D+01 0.163912773132D-06
    0.929027431161D+00 0.210687500000D+03 0.211422196773D+01-0.845428072616D-08
    0.304655547269D-09 0.100000000000D+01 0.202100000000D+04 0.000000000000D+00
    0.200000000000D+01 0.000000000000D+00-0.838190317154D-08 0.200000000000D+02
    0.136818000000D+06 0.400000000000D+01 0.000000000000D+00 0.000000000000D+00
21 18 10  1 16  0  0.0-0.328257214278D-03 0.613908923697D-11 0.000000000000D+00
    0.270000000000D+02-0.851562500000D+02 0.487448875631D-08 0.137598925458D+01
   -0.471994280815D-05 0.243532481836D-01 0.906549394131D-05 0.515362545395D+04
    0.144000000000D+06-0.124797224999D-06 0.122268654781D+01-0.640749931335D-06
    0.945181831326D+00 0.203093750000D+03-0.152343144131D+01-0.833391856973D-08
    0.279654505875D-09 0.100000000000D+01 0.202100000000D+04 0.000000000000D+00
    0.200000000000D+01 0.000000000000D+00-0.102445483208D-07 0.270000000000D+02
    0.143880000000D+06 0.400000000000D+01 0.000000000000D+00 0.000000000000D+00
22 18 10  1 16  0  0.0-0.534841790795D-03-0.105728759081D-10 0.000000000000D+00
    0.930000000000D+02-0.246875000000D+01 0.549344310967D-08-0.171416196941D+01
   -0.279396772385D-07 0.704182498157D-02 0.770576298237D-05 0.515369898415D+04
    0.144000000000D+06-0.260770320892D-07 0.225929283300D+01 0.152736902237D-06
    0.925794369040D+00 0.210375000000D+03-0.147651559560D+01-0.842427947648D-08
    0.216794744657D-09 0.100000000000D+01 0.202100000000D+04 0.000000000000D+00
    0.200000000000D+01 0.000000000000D+00-0.181607902050D-07 0.930000000000D+02
    0.136818000000D+06 0.400000000000D+01 0.000000000000D+00 0.000000000000D+00
23 18 10  1 16  0  0.0-0.209671445191D-03 0.795807864051D-12 0.000000000000D+00
    0.820000000000D+02-0.365625000000D+01 0.503985297939D-08-0.233974093060D+01
   -0.311061739922D-06 0.126396176638D-01 0.773929059505D-05 0.515372097969D+04
    0.144000000000D+06 0.158324837685D-06-0.292956700779D+01-0.115483999252D-06
    0.943809729738D+00 0.218468750000D+03-0.232565828283D+01-0.811283751290D-08
   -0.201794123078D-09 0.100000000000D+01 0.202100000000D+04 0.000000000000D+00
    0.200000000000D+01 0.000000000000D+00-0.200234353542D-07 0.820000000000D+02
    0.000000000000D+00 0.000000000000D+00 0.000000000000D+00 0.000000000000D+00
24 18 10  1 16  0  0.0-0.561499036849D-04-0.568434188608D-12 0.000000000000D+00
    0.740000000000D+02 0.745312500000D+02 0.466055127352D-08-0.277515630150D+01
    0.379607081413D-05 0.732581899501D-02 0.982359051704D-05 0.515363187027D+04
    0.144000000000D+06-0.745058059692D-08-0.191148181993D+01-0.838190317154D-07
    0.940387133413D+00 0.178812500000D+03 0.536929654144D+00-0.803033449567D-08
   -0.180007498035D-09 0.100000000000D+01 0.202100000000D+04 0.000000000000D+00
    0.280000000000D+01 0.000000000000D+00 0.279396772385D-08 0.740000000000D+02
    0.142302000000D+06 0.400000000000D+01 0.000000000000D+00 0.000000000000D+00
25 18 10  1 16  0  0.0-0.655297189951D-03-0.568434188608D-11 0.000000000000D+00
    0.650000000000D+02 0.737812500000D+02 0.430446522870D-08 0.149850923035D+01
    0.368990004063D-05 0.746949133463D-02 0.463239848614D-05 0.515358714676D+04
    0.144000000000D+06-0.111758708954D-06-0.815253723253D+00 0.000000000000D+00
    0.972896087267D+00 0.294812500000D+03 0.860683431445D+00-0.828713098144D-08
    0.111433209882D-09 0.100000000000D+01 0.202100000000D+04 0.000000000000D+00
    0.200000000000D+01 0.000000000000D+00 0.558793544769D-08 0.650000000000D+02
    0.141600000000D+06 0.000000000000D+00 0.000000000000D+00 0.000000000000D+00
26 18 10  1 16  0  0.0-0.359117984772D-05 0.114823706099D-10 0.000000000000D+00
    0.380000000000D+02 0.694062500000D+02 0.462019244956D-08 0.966270361588D+00
    0.361539423466D-05 0.296194595285D-02 0.494718551636D-05 0.515373243141D+04
    0.144000000000D+06 0.130385160446D-07-0.839494189514D+00 0.149011611938D-07
    0.954333093427D+00 0.278968750000D+03 0.505698390996D-01-0.837034865862D-08
    0.111790370803D-09 0.100000000000D+01 0.202100000000D+04 0.000000000000D+00
    0.200000000000D+01 0.000000000000D+00 0.745058059692D-08 0.380000000000D+02
    0.136818000000D+06 0.400000000000D+01 0.000000000000D+00 0.000000000000D+00
27 18 10  1 16  0  0.0 0.339235644787D-03-0.409272615798D-11 0.000000000000D+00
    0.930000000000D+02-0.507812500000D+02 0.425517724521D-08-0.950024840645D+00
   -0.263005495071D-05 0.605336960871D-02 0.473298132420D-05 0.515369562531D+04
    0.144000000000D+06 0.199303030968D-06 0.224602921602D+00 0.242143869400D-07
    0.978212581726D+00 0.295437500000D+03 0.448428093047D+00-0.814605360154D-08
   -0.178578867098D-11 0.100000000000D+01 0.202100000000D+04 0.000000000000D+00
    0.280000000000D+01 0.000000000000D+00 0.186264514923D-08 0.930000000000D+02
    0.136818000000D+06 0.400000000000D+01 0.000000000000D+00 0.000000000000D+00
